{
  "type": "FeatureCollection",
  "features": [
    {
      "type": "Feature",
      "properties": {
        "samples": 17
      },
      "geometry": {
        "type": "LineString",
        "coordinates": [
          [
            77.5946,
            12.9716,
            92.0
          ],
          [
            77.594696875,
            12.971623410838642,
            93.3656322541129
          ],
          [
            77.59479375,
            12.971645922011884,
            94.67878402655563
          ],
          [
            77.594890625,
            12.971666668427963,
            95.88899163113722
          ],
          [
            77.5949875,
            12.971684852813743,
            96.94974746830583
          ],
          [
            77.595084375,
            12.971699776353477,
            97.82028728611782
          ],
          [
            77.59518125,
            12.971710865543901,
            98.46715672757901
          ],
          [
            77.595278125,
            12.971717694233648,
            98.86549696282262
          ],
          [
            77.595375,
            12.971720000000001,
            99.0
          ],
          [
            77.595471875,
            12.971717694233648,
            98.86549696282262
          ],
          [
            77.59556875,
            12.971710865543901,
            98.46715672757901
          ],
          [
            77.595665625,
            12.971699776353477,
            97.82028728611782
          ],
          [
            77.5957625,
            12.971684852813743,
            96.94974746830583
          ],
          [
            77.595859375,
            12.971666668427963,
            95.88899163113722
          ],
          [
            77.59595625,
            12.971645922011884,
            94.67878402655563
          ],
          [
            77.596053125,
            12.971623410838642,
            93.3656322541129
          ],
          [
            77.59615,
            12.9716,
            92.0
          ]
        ]
      }
    }
  ]
}